[{"OBJECT_NAME":"ONEWEB-0391","OBJECT_ID":"2021-132C","EPOCH":"2026-03-09T21:03:44.229600","MEAN_MOTION":13.17649662,"ECCENTRICITY":0.00019766,"INCLINATION":87.9151,"RA_OF_ASC_NODE":25.5986,"ARG_OF_PERICENTER":54.8205,"MEAN_ANOMALY":305.3111,"EPHEMERIS_TYPE":0,"CLASSIFICATION_TYPE":"U","NORAD_CAT_ID":50471,"ELEMENT_SET_NO":999,"REV_AT_EPOCH":20500,"BSTAR":0.00011468789,"MEAN_MOTION_DOT":5.7e-7,"MEAN_MOTION_DDOT":0},{"OBJECT_NAME":"DELTA 1 DEB","OBJECT_ID":"1976-077X","EPOCH":"2026-03-09T21:03:53.244576","MEAN_MOTION":13.37358686,"ECCENTRICITY":0.01201226,"INCLINATION":101.1904,"RA_OF_ASC_NODE":34.3791,"ARG_OF_PERICENTER":272.7336,"MEAN_ANOMALY":144.204,"EPHEMERIS_TYPE":0,"CLASSIFICATION_TYPE":"U","NORAD_CAT_ID":10661,"ELEMENT_SET_NO":999,"REV_AT_EPOCH":32152,"BSTAR":-0.0039509482,"MEAN_MOTION_DOT":-2.206e-5,"MEAN_MOTION_DDOT":0}]
